{
    "links": {
        "self": "http://www.neowsapp.com/rest/v1/neo/3666915?api_key=iIulBulltgU6a56xZRHN4H3l9WmuAYTsLGpBGhQ2"
    },
    "id": "3666915",
    "neo_reference_id": "3666915",
    "name": "(2014 GG1)",
    "designation": "2014 GG1",
    "nasa_jpl_url": "http://ssd.jpl.nasa.gov/sbdb.cgi?sstr=3666915",
    "absolute_magnitude_h": 26.3,
    "estimated_diameter": {
        "kilometers": {
            "estimated_diameter_min": 0.0146067964,
            "estimated_diameter_max": 0.0326617897
        },
        "meters": {
            "estimated_diameter_min": 14.6067964271,
            "estimated_diameter_max": 32.6617897446
        },
        "miles": {
            "estimated_diameter_min": 0.0090762397,
            "estimated_diameter_max": 0.020295089
        },
        "feet": {
            "estimated_diameter_min": 47.92256199,
            "estimated_diameter_max": 107.1581062656
        }
    },
    "is_potentially_hazardous_asteroid": false,
    "close_approach_data": [
        {
            "close_approach_date": "1919-04-30",
            "close_approach_date_full": "1919-Apr-30 06:20",
            "epoch_date_close_approach": -1599154800000,
            "relative_velocity": {
                "kilometers_per_second": "16.1272549647",
                "kilometers_per_hour": "58058.117872884",
                "miles_per_hour": "36075.0566305151"
            },
            "miss_distance": {
                "astronomical": "0.3424314752",
                "lunar": "133.2058438528",
                "kilometers": "51227019.310877824",
                "miles": "31830993.7769850112"
            },
            "orbiting_body": "Earth"
        },
        {
            "close_approach_date": "2005-04-27",
            "close_approach_date_full": "2005-Apr-27 03:35",
            "epoch_date_close_approach": 1114572900000,
            "relative_velocity": {
                "kilometers_per_second": "14.4670555817",
                "kilometers_per_hour": "52081.4000939587",
                "miles_per_hour": "32361.3566306045"
            },
            "miss_distance": {
                "astronomical": "0.2865887685",
                "lunar": "111.4830309465",
                "kilometers": "42873069.333523095",
                "miles": "26640089.966464911"
            },
            "orbiting_body": "Earth"
        },
        {
            "close_approach_date": "2014-03-27",
            "close_approach_date_full": "2014-Mar-27 13:40",
            "epoch_date_close_approach": 1395927600000,
            "relative_velocity": {
                "kilometers_per_second": "6.353550106",
                "kilometers_per_hour": "22872.780381573",
                "miles_per_hour": "14212.2562320946"
            },
            "miss_distance": {
                "astronomical": "0.0092012747",
                "lunar": "3.5792958583",
                "kilometers": "1376491.096404889",
                "miles": "855311.9059659082"
            },
            "orbiting_body": "Earth"
        },
        {
            "close_approach_date": "2023-05-02",
            "close_approach_date_full": "2023-May-02 12:16",
            "epoch_date_close_approach": 1683029760000,
            "relative_velocity": {
                "kilometers_per_second": "16.6261094691",
                "kilometers_per_hour": "59853.9940886239",
                "miles_per_hour": "37190.9442713452"
            },
            "miss_distance": {
                "astronomical": "0.3589678036",
                "lunar": "139.6384756004",
                "kilometers": "53700818.817138332",
                "miles": "33368141.5116877016"
            },
            "orbiting_body": "Earth"
        },
        {
            "close_approach_date": "2052-04-20",
            "close_approach_date_full": "2052-Apr-20 10:57",
            "epoch_date_close_approach": 2597223420000,
            "relative_velocity": {
                "kilometers_per_second": "11.5228708643",
                "kilometers_per_hour": "41482.3351115657",
                "miles_per_hour": "25775.5098364059"
            },
            "miss_distance": {
                "astronomical": "0.1866358436",
                "lunar": "72.6013431604",
                "kilometers": "27920324.668213132",
                "miles": "17348885.2703279416"
            },
            "orbiting_body": "Earth"
        }
    ],
    "orbital_data": {
        "orbit_id": "6",
        "orbit_determination_date": "2017-04-06 08:41:48",
        "first_observation_date": "2014-04-01",
        "last_observation_date": "2014-04-12",
        "data_arc_in_days": 11,
        "observations_used": 35,
        "orbit_uncertainty": "7",
        "minimum_orbit_intersection": ".00147739",
        "jupiter_tisserand_invariant": "4.501",
        "epoch_osculation": "2459000.5",
        "eccentricity": ".3454140671846795",
        "semi_major_axis": "1.486080968382484",
        "inclination": "5.020499712732182",
        "ascending_node_longitude": "182.9612248765497",
        "orbital_period": "661.7015248539832",
        "perihelion_distance": ".9727676969277435",
        "perihelion_argument": "335.9678803182978",
        "aphelion_distance": "1.999394239837226",
        "perihelion_time": "2458705.959367745882",
        "mean_anomaly": "160.2454031443876",
        "mean_motion": ".5440519425725077",
        "equinox": "J2000",
        "orbit_class": {
            "orbit_class_type": "APO",
            "orbit_class_description": "Near-Earth asteroid orbits which cross the Earth’s orbit similar to that of 1862 Apollo",
            "orbit_class_range": "a (semi-major axis) > 1.0 AU; q (perihelion) < 1.017 AU"
        }
    },
    "is_sentry_object": false
}